TRANSPORTER-12 OBJECT BT
1 62674U 25009BT  26068.71416991  .00013824  00000+0  51029-3 0  9998
2 62674  97.4094 151.5992 0003682 313.5044  46.5889 15.27872239121360
STARLINK-33712          
1 63797U 25091Y   26068.38078278  .00034560  00000+0  12585-2 0  9994
2 63797  43.0012  57.9029 0001402 242.4408 117.6301 15.27606334 48814
